ONEWEB-0709             
1 55172U 23004AJ  25231.60321195 -.00000363  00000+0 -10591-2 0  9990
2 55172  87.8777  81.1937 0000886  66.1096 294.0124 13.11416910126340
ONEWEB-0710             
1 55173U 23004AK  25231.58532071  .00000072  00000+0  15248-3 0  9995
2 55173  87.9022  65.8930 0001818  94.0658 266.0681 13.17648972127863
ONEWEB-0711             
1 55174U 23004AL  25231.57438991  .00000560  00000+0  15436-2 0  9991
2 55174  87.8777  81.1671 0002034 106.9151 253.2200 13.11415914126300
ONEWEB-0713             
1 55175U 23004AM  25231.59302984  .00000017  00000+0  12052-4 0  9996
2 55175  87.8777  81.1710 0001772  93.9078 266.2253 13.11415231126298
ONEWEB-0715             
1 55176U 23004AN  25231.58794416  .00000246  00000+0  65793-3 0  9994
2 55176  87.8776  81.1725 0001373  87.0120 273.1165 13.11413966126330
ONEWEB-0716             
1 55177U 23004AP  25231.57855341  .00000069  00000+0  14478-3 0  9996
2 55177  87.9022  65.8941 0001867  81.8495 278.2848 13.17648561127860
ONEWEB-0717             
1 55178U 23004AQ  25231.56166566  .00000027  00000+0  36683-4 0  9997
2 55178  87.9028  65.8573 0001877 111.6786 248.4545 13.17651952127911
ONEWEB-0719             
1 55179U 23004AR  25231.57181702  .00000090  00000+0  19865-3 0  9990
2 55179  87.9031  65.8388 0001984  85.1284 275.0074 13.17649151127862
ONEWEB-0530             
1 55796U 23029A   25231.35115520  .00000017  00000+0  10545-4 0  9999
2 55796  87.9301 334.6365 0002319 109.4185 250.7199 13.20770547121301
ONEWEB-0534             
1 55797U 23029B   25231.79308242 -.00000077  00000+0 -22026-3 0  9997
2 55797  87.9294 334.5546 0001968  96.2493 263.8865 13.20770250122056
ONEWEB-0556             
1 55798U 23029C   25231.34484184 -.00000080  00000+0 -22828-3 0  9993
2 55798  87.9303 334.6374 0002680  94.0614 266.0826 13.20770030121306
ONEWEB-0562             
1 55799U 23029D   25231.33222677 -.00000014  00000+0 -67081-4 0  9998
2 55799  87.9290 334.6296 0002811 107.5829 252.5612 13.20772635121305
ONEWEB-0563             
1 55800U 23029E   25231.32591191  .00000017  00000+0  93705-5 0  9994
2 55800  87.9298 334.6494 0002012  93.3215 266.8148 13.20773577121296
ONEWEB-0564             
1 55801U 23029F   25231.31959566  .00000107  00000+0  23246-3 0  9999
2 55801  87.9290 334.6345 0002241 106.7225 253.4154 13.20772677121309
ONEWEB-0638             
1 55802U 23029G   25231.35769658 -.00000151  00000+0 -44222-3 0  9993
2 55802  87.9094 349.8408 0002367  96.4214 263.7185 13.14504065119742
ONEWEB-0639             
1 55803U 23029H   25231.43270887 -.00000017  00000+0 -74983-4 0  9993
2 55803  87.9261   4.9744 0001669  58.4074 301.7221 13.19724663119104
ONEWEB-0640             
1 55804U 23029J   25231.36721316 -.00000094  00000+0 -28825-3 0  9992
2 55804  87.9085 349.8253 0002400  85.9634 274.1770 13.14501828119761
ONEWEB-0641             
1 55805U 23029K   25231.42796977  .00000079  00000+0  16416-3 0  9999
2 55805  87.9266   4.9471 0001709  91.1414 268.9915 13.19725555119111
ONEWEB-0642             
1 55806U 23029L   25231.42322568  .00000105  00000+0  23083-3 0  9999
2 55806  87.9257   4.9841 0001352  67.1215 293.0061 13.19727495119104
ONEWEB-0643             
1 55807U 23029M   25231.41320084  .00000103  00000+0  24236-3 0  9999
2 55807  87.9091 349.7991 0001146  85.9414 274.1847 13.14502296119744
ONEWEB-0644             
1 55808U 23029N   25231.41848284  .00000087  00000+0  18595-3 0  9999
2 55808  87.9264   4.9917 0001507  82.7695 277.3609 13.19726787119101
ONEWEB-0645             
1 55809U 23029P   25231.41454923  .00000027  00000+0  35258-4 0  9993
2 55809  87.9248   4.9815 0001946  88.1199 272.0157 13.19725278119101
ONEWEB-0646             
1 55810U 23029Q   25231.44855864  .00000080  00000+0  16921-3 0  9991
2 55810  87.9247   4.9683 0001596  94.5492 265.5823 13.19254744119093
ONEWEB-0648             
1 55811U 23029R   25231.38150202  .00000092  00000+0  21313-3 0  9993
2 55811  87.9076 349.7793 0001850  68.5555 291.5772 13.14503977119744
ONEWEB-0649             
1 55812U 23029S   25231.40744146  .00000112  00000+0  24693-3 0  9990
2 55812  87.9260   4.9697 0001763  81.6974 278.4358 13.19725139119124
ONEWEB-0650             
1 55813U 23029T   25231.40270345  .00000158  00000+0  36315-3 0  9990
2 55813  87.9259   4.9818 0001690  92.1223 268.0103 13.19724925119092
ONEWEB-0652             
1 55814U 23029U   25231.36245319 -.00000132  00000+0 -39099-3 0  9995
2 55814  87.9088 349.7955 0001923 103.5649 256.5695 13.14502204119719
ONEWEB-0653             
1 55815U 23029V   25231.34660786 -.00000094  00000+0 -28725-3 0  9994
2 55815  87.9087 349.7874 0002047  99.5021 260.6341 13.14502851119740
ONEWEB-0654             
1 55816U 23029W   25231.34184104  .00000055  00000+0  11263-3 0  9994
2 55816  87.9087 349.7869 0002105 107.7906 252.3454 13.14503689119769
ONEWEB-0656             
1 55817U 23029X   25231.84356581 -.00001923  00000+0 -47630-2 0  9993
2 55817  87.9300 334.4753 0002378 108.8395 251.2997 13.20780882122052
ONEWEB-0657             
1 55818U 23029Y   25231.39794688 -.00000023  00000+0 -89307-4 0  9997
2 55818  87.9260   4.9872 0001573 123.5847 236.5436 13.19722442119103
ONEWEB-0658             
1 55819U 23029Z   25231.39322538  .00000116  00000+0  25670-3 0  9992
2 55819  87.9268   4.9232 0001522  83.5735 276.5571 13.19725781119111
ONEWEB-0660             
1 55820U 23029AA  25231.39576825  .00000241  00000+0  61592-3 0  9996
2 55820  87.9088 349.7480 0001978  89.4995 270.6362 13.14502782119758
ONEWEB-0661             
1 55821U 23029AB  25231.35453044 -.00000113  00000+0 -33973-3 0  9992
2 55821  87.9089 349.8279 0002101  90.8458 269.2913 13.14503263119735
ONEWEB-0662             
1 55822U 23029AC  25231.31330003  .00000177  00000+0  44242-3 0  9997
2 55822  87.9088 349.8430 0001892  87.7037 272.4309 13.14503020119778
ONEWEB-0663             
1 55823U 23029AD  25231.29103963  .00000029  00000+0  38541-4 0  9990
2 55823  87.9312 334.6414 0001885  85.5821 274.5527 13.20843510121295
ONEWEB-0664             
1 55824U 23029AE  25231.30064407  .00000081  00000+0  16670-3 0  9998
2 55824  87.9304 334.6608 0002336  97.9411 262.1987 13.20774037121296
ONEWEB-0665             
1 55825U 23029AF  25231.80805253 -.00000208  00000+0 -59668-3 0  9993
2 55825  87.9094 349.7128 0001858  90.6172 269.5171 13.14501399120500
ONEWEB-0666             
1 55826U 23029AG  25231.29432127 -.00000205  00000+0 -53646-3 0  9990
2 55826  87.9305 334.6505 0001806 123.1028 237.0279 13.20772096121302
ONEWEB-0667             
1 55827U 23029AH  25231.36377913  .00000191  00000+0  43889-3 0  9990
2 55827  87.9299 334.5651 0001979  93.8936 266.2424 13.20774964121300
ONEWEB-0669             
1 55828U 23029AJ  25231.35905219  .00000023  00000+0  24455-4 0  9999
2 55828  87.9304 334.6045 0002538 109.5198 250.6209 13.20772626121304
ONEWEB-0670             
1 55829U 23029AK  25231.40526772  .00000307  00000+0  79414-3 0  9998
2 55829  87.9098 349.8127 0002188  92.6782 267.4598 13.14501586119780
ONEWEB-0671             
1 55830U 23029AL  25231.84339038  .00000027  00000+0  36116-4 0  9997
2 55830  87.9258   4.8910 0001918  91.9804 268.1549 13.19726420119847
ONEWEB-0672             
1 55831U 23029AM  25231.80885525 -.00000056  00000+0 -16907-3 0  9990
2 55831  87.9297 334.5003 0001962 108.8459 251.2887 13.20771151122047
ONEWEB-0673             
1 55832U 23029AN  25231.36478386  .00000014  00000+0  38238-5 0  9990
2 55832  87.9267   4.9505 0001652  91.6707 268.4615 13.19726988119097
ONEWEB-0674             
1 55833U 23029AP  25231.83027688 -.00000128  00000+0 -37900-3 0  9999
2 55833  87.9091 349.7123 0002312  93.5073 266.6321 13.14503213120501
ONEWEB-0675             
1 55834U 23029AQ  25231.38058369  .00000058  00000+0  11380-3 0  9994
2 55834  87.9258   4.9935 0001543 104.2265 255.9039 13.19727502119112
ONEWEB-0720             
1 55835U 23029AR  25231.82759379  .00000031  00000+0  44471-4 0  9992
2 55835  87.9254   4.9021 0001718  82.4989 277.6339 13.19725850119780
ONEWEB-0537             
1 56046U 23043A   25231.56267086 -.00000046  00000+0 -15343-3 0  9996
2 56046  87.9030 288.8851 0001886 102.4370 257.6972 13.16593915119271
ONEWEB-0538             
1 56047U 23043B   25231.17634542  .00000017  00000+0  96828-5 0  9994
2 56047  87.9021 288.9763 0001706  95.9100 264.2226 13.16595317119233
ONEWEB-0546             
1 56048U 23043C   25231.61965607  .00000257  00000+0  63957-3 0  9994
2 56048  87.9030 288.8675 0002049 116.3856 243.7485 13.16596306119285
ONEWEB-0547             
1 56049U 23043D   25231.75068060 -.00000130  00000+0 -34659-3 0  9996
2 56049  87.9249 304.1226 0001806  94.3651 265.7689 13.21825459119314
ONEWEB-0548             
1 56050U 23043E   25231.56900391 -.00000022  00000+0 -91948-4 0  9994
2 56050  87.9016 288.9048 0002499  94.0914 266.0502 13.16592292119270
ONEWEB-0549             
1 56051U 23043F   25231.59061140 -.00000084  00000+0 -23576-3 0  9997
2 56051  87.9254 304.1689 0001771  92.9702 267.1635 13.21825103118387
ONEWEB-0550             
1 56052U 23043G   25231.72938619 -.00000081  00000+0 -22709-3 0  9991
2 56052  87.9253 304.1352 0002149  99.4095 260.7282 13.21826614119310
ONEWEB-0551             
1 56053U 23043H   25231.28370355 -.00000035  00000+0 -12647-3 0  9999
2 56053  87.9072 319.4601 0001828  92.8782 267.2557 13.15548304116706
ONEWEB-0552             
1 56054U 23043J   25231.57168652 -.00000022  00000+0 -84961-4 0  9992
2 56054  87.9255 304.1755 0001973  89.1261 271.0099 13.21824724118383
ONEWEB-0553             
1 56055U 23043K   25231.54999660 -.00000035  00000+0 -12512-3 0  9997
2 56055  87.9021 288.9002 0002116 106.4176 253.7188 13.16593121120193
ONEWEB-0554             
1 56056U 23043L   25231.61331197  .00000038  00000+0  65326-4 0  9994
2 56056  87.9015 288.9136 0002286  95.9208 264.2184 13.16596014119275
